{"type": "FeatureCollection", "features": [ {"type": "Feature", "properties": {"norad_id": 39122, "name": "EUTELSAT 117 WEST A", "group": "eutelsat", "lat": -0.027321360844549843, "lon": -74.18752080511305, "alt_km": 35775.480958891836, "timestamp": "2025-12-22T20:43:45.514102+00:00", "meta": {"OBJECT_NAME": "EUTELSAT 117 WEST A", "OBJECT_ID": "2013-012A", "EPOCH": "2025-12-22T10:53:51.150336", "MEAN_MOTION": 1.00270741, "ECCENTRICITY": 0.00026277, "INCLINATION": 0.0258, "RA_OF_ASC_NODE": 308.677, "ARG_OF_PERICENTER": 324.9754, "MEAN_ANOMALY": 224.282, "EPHEMERIS_TYPE": 0, "CLASSIFICATION_TYPE": "U", "NORAD_CAT_ID": 39122, "ELEMENT_SET_NO": 999, "REV_AT_EPOCH": 4666, "BSTAR": 0, "MEAN_MOTION_DOT": 9e-08, "MEAN_MOTION_DDOT": 0}, "tle": {"line1": "1 39122U 13012A   25356.45406424  .00000009  00000+0  00000+0 0  9991", "line2": "2 39122   0.0258 308.6770 0002627 324.9754 224.2820  1.00270741 46660"}}, "geometry": {"type": "Point", "coordinates": [-74.18752080511305, -0.027321360844549843]}}, {"type": "Feature", "properties": {"norad_id": 39163, "name": "EUTELSAT 7B", "group": "eutelsat", "lat": 0.0644799691500586, "lon": 49.63832854000388, "alt_km": 35785.444455476965, "timestamp": "2025-12-22T20:43:45.514115+00:00", "meta": {"OBJECT_NAME": "EUTELSAT 7B", "OBJECT_ID": "2013-022A", "EPOCH": "2025-12-22T08:03:44.941248", "MEAN_MOTION": 1.00271186, "ECCENTRICITY": 0.00044202, "INCLINATION": 0.0652, "RA_OF_ASC_NODE": 3.5391, "ARG_OF_PERICENTER": 318.6829, "MEAN_ANOMALY": 256.8512, "EPHEMERIS_TYPE": 0, "CLASSIFICATION_TYPE": "U", "NORAD_CAT_ID": 39163, "ELEMENT_SET_NO": 999, "REV_AT_EPOCH": 4617, "BSTAR": 0, "MEAN_MOTION_DOT": 7e-07, "MEAN_MOTION_DDOT": 0}, "tle": {"line1": "1 39163U 13022A   25356.33593682  .00000070  00000+0  00000+0 0  9995", "line2": "2 39163   0.0652   3.5391 0004420 318.6829 256.8512  1.00271186 46178"}}, "geometry": {"type": "Point", "coordinates": [49.63832854000388, 0.0644799691500586]}}, {"type": "Feature", "properties": {"norad_id": 39612, "name": "EXPRESS-AT1", "group": "eutelsat", "lat": 0.045100195565108504, "lon": 98.5858630137993, "alt_km": 35783.71159454035, "timestamp": "2025-12-22T20:43:45.514126+00:00", "meta": {"OBJECT_NAME": "EXPRESS-AT1", "OBJECT_ID": "2014-010A", "EPOCH": "2025-12-22T10:00:26.265888", "MEAN_MOTION": 1.00271252, "ECCENTRICITY": 7.176e-05, "INCLINATION": 0.023, "RA_OF_ASC_NODE": 347.1334, "ARG_OF_PERICENTER": 146.8279, "MEAN_ANOMALY": 163.3666, "EPHEMERIS_TYPE": 0, "CLASSIFICATION_TYPE": "U", "NORAD_CAT_ID": 39612, "ELEMENT_SET_NO": 999, "REV_AT_EPOCH": 4304, "BSTAR": 0, "MEAN_MOTION_DOT": 0, "MEAN_MOTION_DDOT": 0}, "tle": {"line1": "1 39612U 14010A   25356.41697067  .00000000  00000+0  00000+0 0  9996", "line2": "2 39612   0.0230 347.1334 0000717 146.8279 163.3666  1.00271252 43047"}}, "geometry": {"type": "Point", "coordinates": [98.5858630137993, 0.045100195565108504]}}, {"type": "Feature", "properties": {"norad_id": 39613, "name": "EXPRESS-AT2", "group": "eutelsat", "lat": -0.012560804567707647, "lon": -177.56705851745335, "alt_km": 35786.50913307757, "timestamp": "2025-12-22T20:43:45.514138+00:00", "meta": {"OBJECT_NAME": "EXPRESS-AT2", "OBJECT_ID": "2014-010B", "EPOCH": "2025-12-22T14:26:38.728896", "MEAN_MOTION": 1.00273838, "ECCENTRICITY": 0.00014474, "INCLINATION": 0.0173, "RA_OF_ASC_NODE": 293.9079, "ARG_OF_PERICENTER": 347.7112, "MEAN_ANOMALY": 166.2991, "EPHEMERIS_TYPE": 0, "CLASSIFICATION_TYPE": "U", "NORAD_CAT_ID": 39613, "ELEMENT_SET_NO": 999, "REV_AT_EPOCH": 4273, "BSTAR": 0, "MEAN_MOTION_DOT": -2.59e-06, "MEAN_MOTION_DDOT": 0}, "tle": {"line1": "1 39613U 14010B   25356.60183714 -.00000259  00000+0  00000+0 0  9994", "line2": "2 39613   0.0173 293.9079 0001447 347.7112 166.2991  1.00273838 42737"}}, "geometry": {"type": "Point", "coordinates": [-177.56705851745335, -0.012560804567707647]}}, {"type": "Feature", "properties": {"norad_id": 39773, "name": "EUTELSAT 3B", "group": "eutelsat", "lat": 0.0714742136753794, "lon": 45.70870482365092, "alt_km": 35803.239428475325, "timestamp": "2025-12-22T20:43:45.514149+00:00", "meta": {"OBJECT_NAME": "EUTELSAT 3B", "OBJECT_ID": "2014-030A", "EPOCH": "2025-12-22T08:02:37.548384", "MEAN_MOTION": 1.00274, "ECCENTRICITY": 0.00042468, "INCLINATION": 0.0624, "RA_OF_ASC_NODE": 343.584, "ARG_OF_PERICENTER": 247.7971, "MEAN_ANOMALY": 343.5213, "EPHEMERIS_TYPE": 0, "CLASSIFICATION_TYPE": "U", "NORAD_CAT_ID": 39773, "ELEMENT_SET_NO": 999, "REV_AT_EPOCH": 4229, "BSTAR": 0, "MEAN_MOTION_DOT": 4.2e-07, "MEAN_MOTION_DDOT": 0}, "tle": {"line1": "1 39773U 14030A   25356.33515681  .00000042  00000+0  00000+0 0  9994", "line2": "2 39773   0.0624 343.5840 0004246 247.7971 343.5213  1.00274000 42295"}}, "geometry": {"type": "Point", "coordinates": [45.70870482365092, 0.0714742136753794]}}, {"type": "Feature", "properties": {"norad_id": 40425, "name": "EUTELSAT 115 WEST B", "group": "eutelsat", "lat": 0.010686249732293214, "lon": -72.32407557269701, "alt_km": 35785.59230870924, "timestamp": "2025-12-22T20:43:45.514160+00:00", "meta": {"OBJECT_NAME": "EUTELSAT 115 WEST B", "OBJECT_ID": "2015-010B", "EPOCH": "2025-12-22T10:47:31.232256", "MEAN_MOTION": 1.00269855, "ECCENTRICITY": 2.522e-05, "INCLINATION": 0.0093, "RA_OF_ASC_NODE": 153.5517, "ARG_OF_PERICENTER": 151.4988, "MEAN_ANOMALY": 193.1685, "EPHEMERIS_TYPE": 0, "CLASSIFICATION_TYPE": "U", "NORAD_CAT_ID": 40425, "ELEMENT_SET_NO": 999, "REV_AT_EPOCH": 3962, "BSTAR": 0, "MEAN_MOTION_DOT": -3e-08, "MEAN_MOTION_DDOT": 0}, "tle": {"line1": "1 40425U 15010B   25356.44966704 -.00000003  00000+0  00000+0 0  9995", "line2": "2 40425   0.0093 153.5517 0000252 151.4988 193.1685  1.00269855 39620"}}, "geometry": {"type": "Point", "coordinates": [-72.32407557269701, 0.010686249732293214]}}, {"type": "Feature", "properties": {"norad_id": 40875, "name": "EUTELSAT 8 WEST B", "group": "eutelsat", "lat": 0.04618301932821453, "lon": 34.636426391516174, "alt_km": 35795.9486946599, "timestamp": "2025-12-22T20:43:45.514195+00:00", "meta": {"OBJECT_NAME": "EUTELSAT 8 WEST B", "OBJECT_ID": "2015-039B", "EPOCH": "2025-12-22T06:16:47.683200", "MEAN_MOTION": 1.00271154, "ECCENTRICITY": 0.00042547, "INCLINATION": 0.0635, "RA_OF_ASC_NODE": 2.3398, "ARG_OF_PERICENTER": 269.6982, "MEAN_ANOMALY": 265.2311, "EPHEMERIS_TYPE": 0, "CLASSIFICATION_TYPE": "U", "NORAD_CAT_ID": 40875, "ELEMENT_SET_NO": 999, "REV_AT_EPOCH": 3788, "BSTAR": 0, "MEAN_MOTION_DOT": -4.4e-07, "MEAN_MOTION_DDOT": 0}, "tle": {"line1": "1 40875U 15039B   25356.26166300 -.00000044  00000+0  00000+0 0  9994", "line2": "2 40875   0.0635   2.3398 0004254 269.6982 265.2311  1.00271154 37889"}}, "geometry": {"type": "Point", "coordinates": [34.636426391516174, 0.04618301932821453]}}, {"type": "Feature", "properties": {"norad_id": 41310, "name": "EUTELSAT 9B", "group": "eutelsat", "lat": -0.008664246294778721, "lon": 51.636582384610286, "alt_km": 35799.29618465166, "timestamp": "2025-12-22T20:43:45.514210+00:00", "meta": {"OBJECT_NAME": "EUTELSAT 9B", "OBJECT_ID": "2016-005A", "EPOCH": "2025-12-22T03:54:38.524896", "MEAN_MOTION": 1.00273048, "ECCENTRICITY": 0.0004511, "INCLINATION": 0.0657, "RA_OF_ASC_NODE": 72.7349, "ARG_OF_PERICENTER": 203.4472, "MEAN_ANOMALY": 242.4516, "EPHEMERIS_TYPE": 0, "CLASSIFICATION_TYPE": "U", "NORAD_CAT_ID": 41310, "ELEMENT_SET_NO": 999, "REV_AT_EPOCH": 3634, "BSTAR": 0, "MEAN_MOTION_DOT": 8.4e-07, "MEAN_MOTION_DDOT": 0}, "tle": {"line1": "1 41310U 16005A   25356.16294589  .00000084  00000+0  00000+0 0  9996", "line2": "2 41310   0.0657  72.7349 0004511 203.4472 242.4516  1.00273048 36349"}}, "geometry": {"type": "Point", "coordinates": [51.636582384610286, -0.008664246294778721]}}, {"type": "Feature", "properties": {"norad_id": 41382, "name": "EUTELSAT 65 WEST A", "group": "eutelsat", "lat": -0.009231279454087811, "lon": -22.570154438839676, "alt_km": 35781.55790030135, "timestamp": "2025-12-22T20:43:45.514222+00:00", "meta": {"OBJECT_NAME": "EUTELSAT 65 WEST A", "OBJECT_ID": "2016-014A", "EPOCH": "2025-12-22T11:08:34.740672", "MEAN_MOTION": 1.00273209, "ECCENTRICITY": 0.00021765, "INCLINATION": 0.051, "RA_OF_ASC_NODE": 337.2901, "ARG_OF_PERICENTER": 297.0272, "MEAN_ANOMALY": 278.9069, "EPHEMERIS_TYPE": 0, "CLASSIFICATION_TYPE": "U", "NORAD_CAT_ID": 41382, "ELEMENT_SET_NO": 999, "REV_AT_EPOCH": 3576, "BSTAR": 0, "MEAN_MOTION_DOT": -2.55e-06, "MEAN_MOTION_DDOT": 0}, "tle": {"line1": "1 41382U 16014A   25356.46429098 -.00000255  00000+0  00000+0 0  9994", "line2": "2 41382   0.0510 337.2901 0002176 297.0272 278.9069  1.00273209 35762"}}, "geometry": {"type": "Point", "coordinates": [-22.570154438839676, -0.009231279454087811]}}, {"type": "Feature", "properties": {"norad_id": 41589, "name": "EUTELSAT 117 WEST B", "group": "eutelsat", "lat": 0.00574977548681572, "lon": -74.40096784200306, "alt_km": 35784.50990968788, "timestamp": "2025-12-22T20:43:45.514234+00:00", "meta": {"OBJECT_NAME": "EUTELSAT 117 WEST B", "OBJECT_ID": "2016-038B", "EPOCH": "2025-12-22T10:46:33.521376", "MEAN_MOTION": 1.00271447, "ECCENTRICITY": 3.908e-05, "INCLINATION": 0.0103, "RA_OF_ASC_NODE": 138.8686, "ARG_OF_PERICENTER": 145.0277, "MEAN_ANOMALY": 212.0013, "EPHEMERIS_TYPE": 0, "CLASSIFICATION_TYPE": "U", "NORAD_CAT_ID": 41589, "ELEMENT_SET_NO": 999, "REV_AT_EPOCH": 3489, "BSTAR": 0, "MEAN_MOTION_DOT": 1e-07, "MEAN_MOTION_DDOT": 0}, "tle": {"line1": "1 41589U 16038B   25356.44899909  .00000010  00000+0  00000+0 0  9997", "line2": "2 41589   0.0103 138.8686 0000390 145.0277 212.0013  1.00271447 34890"}}, "geometry": {"type": "Point", "coordinates": [-74.40096784200306, 0.00574977548681572]}}]}